IDEFIX & ARIANE 42P R/B 
1 27422U 02021B   26043.39443402  .00000335  00000+0  14381-3 0  9996
2 27422  98.5843 342.3072 0010644 262.0139  97.9836 14.31007956240403
AQUA                    
1 27424U 02022A   26043.50745528  .00001218  00000+0  25318-3 0  9999
2 27424  98.4127  10.4231 0001380  50.3856  62.0137 14.61914190265055
CZ-4B R/B               
1 27432U 02024C   26043.18568395  .00000052  00000+0  49403-4 0  9996
2 27432  98.8898  96.7137 0051191  95.5178 333.2870 14.14543030225634
MIDORI II (ADEOS-II)    
1 27597U 02056A   26043.46180438  .00000378  00000+0  16626-3 0  9993
2 27597  98.7722   1.7726 0002176  77.9755 282.1671 14.29266205206693
H-2A R/B                
1 27601U 02056E   26043.52407201  .00000349  00000+0  13730-3 0  9997
2 27601  98.3154   4.8549 0069146 236.1127 236.5160 14.33743092210503
CZ-4B R/B               
1 28059U 03049C   26043.48940009  .00000564  00000+0  14109-3 0  9991
2 28059  98.6851  37.4112 0047294 309.5987  50.1038 14.54992973182931
CZ-2C R/B               
1 28222U 04012C   26043.12757859  .00052475  00000+0  60667-3 0  9992
2 28222  97.7300 106.0521 0015555  48.4261 311.8326 15.61574828200288
SL-16 R/B               
1 28353U 04021B   26043.07120360  .00000254  00000+0  15697-3 0  9993
2 28353  70.9994 286.2579 0003057  73.5276 286.6182 14.14591499119219
CZ-4B R/B               
1 28415U 04035C   26043.05560587  .00009254  00000+0  32971-3 0  9997
2 28415  97.3547  77.6100 0033961  61.2502 299.2143 15.28585904175994
CZ-2C R/B               
1 28480U 04046B   26043.38293517  .00000136  00000+0  66275-4 0  9998
2 28480  98.1994 319.9389 0138408 229.4288 129.4780 14.26983344104892
ARIANE 5 R/B            
1 28499U 04049H   26043.43647443  .00001109  00000+0  12818-3 0  9992
2 28499  98.2585 210.9559 0085440  73.2529 287.8038 14.85215465142049
CZ-2D R/B               
1 28738U 05024B   26043.48349098  .00042012  00000+0  56123-3 0  9997
2 28738  97.3620  57.7503 0007604 106.8192 253.3898 15.57921031135852
