CCSDS_OMM_VERS = 2.0
CREATION_DATE  = 
ORIGINATOR     = 

OBJECT_NAME    = IDEFIX & ARIANE 42P R/B
OBJECT_ID      = 2002-021B
CENTER_NAME    = EARTH
REF_FRAME      = TEME
TIME_SYSTEM    = UTC
MEAN_ELEMENT_THEORY = SGP/SGP4

EPOCH          = 2026-02-12T09:27:59.099328
MEAN_MOTION    = 14.31007956
ECCENTRICITY   = .0010644
INCLINATION    = 98.5843
RA_OF_ASC_NODE = 342.3072
ARG_OF_PERICENTER = 262.0139
MEAN_ANOMALY   = 97.9836

EPHEMERIS_TYPE = 0
CLASSIFICATION_TYPE = U
NORAD_CAT_ID   = 27422
ELEMENT_SET_NO = 999
REV_AT_EPOCH   = 24040
BSTAR          = .14381E-3
MEAN_MOTION_DOT = .335E-5
MEAN_MOTION_DDOT = 0

CCSDS_OMM_VERS = 2.0
CREATION_DATE  = 
ORIGINATOR     = 

OBJECT_NAME    = AQUA
OBJECT_ID      = 2002-022A
CENTER_NAME    = EARTH
REF_FRAME      = TEME
TIME_SYSTEM    = UTC
MEAN_ELEMENT_THEORY = SGP/SGP4

EPOCH          = 2026-02-12T12:10:44.136192
MEAN_MOTION    = 14.61914190
ECCENTRICITY   = .000138
INCLINATION    = 98.4127
RA_OF_ASC_NODE = 10.4231
ARG_OF_PERICENTER = 50.3856
MEAN_ANOMALY   = 62.0137

EPHEMERIS_TYPE = 0
CLASSIFICATION_TYPE = U
NORAD_CAT_ID   = 27424
ELEMENT_SET_NO = 999
REV_AT_EPOCH   = 26505
BSTAR          = .25318E-3
MEAN_MOTION_DOT = .1218E-4
MEAN_MOTION_DDOT = 0

CCSDS_OMM_VERS = 2.0
CREATION_DATE  = 
ORIGINATOR     = 

OBJECT_NAME    = CZ-4B R/B
OBJECT_ID      = 2002-024C
CENTER_NAME    = EARTH
REF_FRAME      = TEME
TIME_SYSTEM    = UTC
MEAN_ELEMENT_THEORY = SGP/SGP4

EPOCH          = 2026-02-12T04:27:23.093280
MEAN_MOTION    = 14.14543030
ECCENTRICITY   = .0051191
INCLINATION    = 98.8898
RA_OF_ASC_NODE = 96.7137
ARG_OF_PERICENTER = 95.5178
MEAN_ANOMALY   = 333.2870

EPHEMERIS_TYPE = 0
CLASSIFICATION_TYPE = U
NORAD_CAT_ID   = 27432
ELEMENT_SET_NO = 999
REV_AT_EPOCH   = 22563
BSTAR          = .49403E-4
MEAN_MOTION_DOT = .52E-6
MEAN_MOTION_DDOT = 0

CCSDS_OMM_VERS = 2.0
CREATION_DATE  = 
ORIGINATOR     = 

OBJECT_NAME    = MIDORI II (ADEOS-II)
OBJECT_ID      = 2002-056A
CENTER_NAME    = EARTH
REF_FRAME      = TEME
TIME_SYSTEM    = UTC
MEAN_ELEMENT_THEORY = SGP/SGP4

EPOCH          = 2026-02-12T11:04:59.898432
MEAN_MOTION    = 14.29266205
ECCENTRICITY   = .0002176
INCLINATION    = 98.7722
RA_OF_ASC_NODE = 1.7726
ARG_OF_PERICENTER = 77.9755
MEAN_ANOMALY   = 282.1671

EPHEMERIS_TYPE = 0
CLASSIFICATION_TYPE = U
NORAD_CAT_ID   = 27597
ELEMENT_SET_NO = 999
REV_AT_EPOCH   = 20669
BSTAR          = .16626E-3
MEAN_MOTION_DOT = .378E-5
MEAN_MOTION_DDOT = 0

CCSDS_OMM_VERS = 2.0
CREATION_DATE  = 
ORIGINATOR     = 

OBJECT_NAME    = H-2A R/B
OBJECT_ID      = 2002-056E
CENTER_NAME    = EARTH
REF_FRAME      = TEME
TIME_SYSTEM    = UTC
MEAN_ELEMENT_THEORY = SGP/SGP4

EPOCH          = 2026-02-12T12:34:39.821664
MEAN_MOTION    = 14.33743092
ECCENTRICITY   = .0069146
INCLINATION    = 98.3154
RA_OF_ASC_NODE = 4.8549
ARG_OF_PERICENTER = 236.1127
MEAN_ANOMALY   = 236.5160

EPHEMERIS_TYPE = 0
CLASSIFICATION_TYPE = U
NORAD_CAT_ID   = 27601
ELEMENT_SET_NO = 999
REV_AT_EPOCH   = 21050
BSTAR          = .1373E-3
MEAN_MOTION_DOT = .349E-5
MEAN_MOTION_DDOT = 0

CCSDS_OMM_VERS = 2.0
CREATION_DATE  = 
ORIGINATOR     = 

OBJECT_NAME    = CZ-4B R/B
OBJECT_ID      = 2003-049C
CENTER_NAME    = EARTH
REF_FRAME      = TEME
TIME_SYSTEM    = UTC
MEAN_ELEMENT_THEORY = SGP/SGP4

EPOCH          = 2026-02-12T11:44:44.167776
MEAN_MOTION    = 14.54992973
ECCENTRICITY   = .0047294
INCLINATION    = 98.6851
RA_OF_ASC_NODE = 37.4112
ARG_OF_PERICENTER = 309.5987
MEAN_ANOMALY   = 50.1038

EPHEMERIS_TYPE = 0
CLASSIFICATION_TYPE = U
NORAD_CAT_ID   = 28059
ELEMENT_SET_NO = 999
REV_AT_EPOCH   = 18293
BSTAR          = .14109E-3
MEAN_MOTION_DOT = .564E-5
MEAN_MOTION_DDOT = 0

CCSDS_OMM_VERS = 2.0
CREATION_DATE  = 
ORIGINATOR     = 

OBJECT_NAME    = CZ-2C R/B
OBJECT_ID      = 2004-012C
CENTER_NAME    = EARTH
REF_FRAME      = TEME
TIME_SYSTEM    = UTC
MEAN_ELEMENT_THEORY = SGP/SGP4

EPOCH          = 2026-02-12T03:03:42.790176
MEAN_MOTION    = 15.61574828
ECCENTRICITY   = .00155554
INCLINATION    = 97.7300
RA_OF_ASC_NODE = 106.0521
ARG_OF_PERICENTER = 48.4261
MEAN_ANOMALY   = 311.8326

EPHEMERIS_TYPE = 0
CLASSIFICATION_TYPE = U
NORAD_CAT_ID   = 28222
ELEMENT_SET_NO = 999
REV_AT_EPOCH   = 20028
BSTAR          = .60667051E-3
MEAN_MOTION_DOT = .52475E-3
MEAN_MOTION_DDOT = 0

CCSDS_OMM_VERS = 2.0
CREATION_DATE  = 
ORIGINATOR     = 

OBJECT_NAME    = SL-16 R/B
OBJECT_ID      = 2004-021B
CENTER_NAME    = EARTH
REF_FRAME      = TEME
TIME_SYSTEM    = UTC
MEAN_ELEMENT_THEORY = SGP/SGP4

EPOCH          = 2026-02-12T01:42:31.991040
MEAN_MOTION    = 14.14591499
ECCENTRICITY   = .00030571
INCLINATION    = 70.9994
RA_OF_ASC_NODE = 286.2579
ARG_OF_PERICENTER = 73.5276
MEAN_ANOMALY   = 286.6182

EPHEMERIS_TYPE = 0
CLASSIFICATION_TYPE = U
NORAD_CAT_ID   = 28353
ELEMENT_SET_NO = 999
REV_AT_EPOCH   = 11921
BSTAR          = .15696896E-3
MEAN_MOTION_DOT = .254E-5
MEAN_MOTION_DDOT = 0

CCSDS_OMM_VERS = 2.0
CREATION_DATE  = 
ORIGINATOR     = 

OBJECT_NAME    = CZ-4B R/B
OBJECT_ID      = 2004-035C
CENTER_NAME    = EARTH
REF_FRAME      = TEME
TIME_SYSTEM    = UTC
MEAN_ELEMENT_THEORY = SGP/SGP4

EPOCH          = 2026-02-12T01:20:04.347168
MEAN_MOTION    = 15.28585904
ECCENTRICITY   = .00339611
INCLINATION    = 97.3547
RA_OF_ASC_NODE = 77.6100
ARG_OF_PERICENTER = 61.2502
MEAN_ANOMALY   = 299.2143

EPHEMERIS_TYPE = 0
CLASSIFICATION_TYPE = U
NORAD_CAT_ID   = 28415
ELEMENT_SET_NO = 999
REV_AT_EPOCH   = 17599
BSTAR          = .32971476E-3
MEAN_MOTION_DOT = .9254E-4
MEAN_MOTION_DDOT = 0

CCSDS_OMM_VERS = 2.0
CREATION_DATE  = 
ORIGINATOR     = 

OBJECT_NAME    = CZ-2C R/B
OBJECT_ID      = 2004-046B
CENTER_NAME    = EARTH
REF_FRAME      = TEME
TIME_SYSTEM    = UTC
MEAN_ELEMENT_THEORY = SGP/SGP4

EPOCH          = 2026-02-12T09:11:25.598688
MEAN_MOTION    = 14.26983344
ECCENTRICITY   = .0138408
INCLINATION    = 98.1994
RA_OF_ASC_NODE = 319.9389
ARG_OF_PERICENTER = 229.4288
MEAN_ANOMALY   = 129.4780

EPHEMERIS_TYPE = 0
CLASSIFICATION_TYPE = U
NORAD_CAT_ID   = 28480
ELEMENT_SET_NO = 999
REV_AT_EPOCH   = 10489
BSTAR          = .66275E-4
MEAN_MOTION_DOT = .136E-5
MEAN_MOTION_DDOT = 0

CCSDS_OMM_VERS = 2.0
CREATION_DATE  = 
ORIGINATOR     = 

OBJECT_NAME    = ARIANE 5 R/B
OBJECT_ID      = 2004-049H
CENTER_NAME    = EARTH
REF_FRAME      = TEME
TIME_SYSTEM    = UTC
MEAN_ELEMENT_THEORY = SGP/SGP4

EPOCH          = 2026-02-12T10:28:31.390752
MEAN_MOTION    = 14.85215465
ECCENTRICITY   = .008544
INCLINATION    = 98.2585
RA_OF_ASC_NODE = 210.9559
ARG_OF_PERICENTER = 73.2529
MEAN_ANOMALY   = 287.8038

EPHEMERIS_TYPE = 0
CLASSIFICATION_TYPE = U
NORAD_CAT_ID   = 28499
ELEMENT_SET_NO = 999
REV_AT_EPOCH   = 14204
BSTAR          = .12818E-3
MEAN_MOTION_DOT = .1109E-4
MEAN_MOTION_DDOT = 0

CCSDS_OMM_VERS = 2.0
CREATION_DATE  = 
ORIGINATOR     = 

OBJECT_NAME    = CZ-2D R/B
OBJECT_ID      = 2005-024B
CENTER_NAME    = EARTH
REF_FRAME      = TEME
TIME_SYSTEM    = UTC
MEAN_ELEMENT_THEORY = SGP/SGP4

EPOCH          = 2026-02-12T11:36:13.620672
MEAN_MOTION    = 15.57921031
ECCENTRICITY   = .0007604
INCLINATION    = 97.3620
RA_OF_ASC_NODE = 57.7503
ARG_OF_PERICENTER = 106.8192
MEAN_ANOMALY   = 253.3898

EPHEMERIS_TYPE = 0
CLASSIFICATION_TYPE = U
NORAD_CAT_ID   = 28738
ELEMENT_SET_NO = 999
REV_AT_EPOCH   = 13585
BSTAR          = .56123E-3
MEAN_MOTION_DOT = .42012E-3
MEAN_MOTION_DDOT = 0

